ONEWEB-0267             
1 48985U 21060U   24203.92058403  .00000043  00000+0  78091-4 0  9990
2 48985  87.9114   7.1909 0001798  79.1233 281.0100 13.16594554148101
ONEWEB-0268             
1 48986U 21060V   24203.96492513  .00000463  00000+0  11781-2 0  9996
2 48986  87.9095   7.1938 0002084 101.2337 258.9028 13.16586313149661
ONEWEB-0269             
1 48987U 21060W   24204.02191427 -.00000120  00000+0 -34741-3 0  9999
2 48987  87.9116   7.2032 0001894  94.4726 265.6621 13.16594936149456
ONEWEB-0270             
1 48988U 21060X   24204.41931416  .00000029  00000+0  42145-4 0  9997
2 48988  87.9113   7.1056 0001448  76.0966 284.0326 13.16594340149553
ONEWEB-0271             
1 48989U 21060Y   24203.87466524 -.00000016  00000+0 -74491-4 0  9997
2 48989  87.9115   7.1910 0001725  79.9346 280.1979 13.16594099148176
ONEWEB-0272             
1 48990U 21060Z   24203.89682486  .00000028  00000+0  39401-4 0  9991
2 48990  87.9115   7.2156 0001766  83.6199 276.5133 13.16592428148124
ONEWEB-0273             
1 48991U 21060AA  24204.45097772  .00000104  00000+0  23761-3 0  9999
2 48991  87.9117   7.0922 0001584  89.2026 270.9287 13.16593852149474
ONEWEB-0274             
1 48992U 21060AB  24204.40031562 -.00000009  00000+0 -57986-4 0  9993
2 48992  87.9122   7.1178 0002243  83.0732 277.0654 13.16594445149503
